0 COSMOS 2251 DEB
1 37329U 93036BKV 13278.08065451  .00006343  00000-0  13558-2 0  1852
2 37329 074.0280 068.6646 0053023 221.3010 138.6045 14.58126534217865
0 COSMOS 2251 DEB
1 37329U 93036BKV 13280.07026617  .00006574  00000-0  14063-2 0  1864
2 37329 074.0236 064.8730 0050676 221.3554 138.3703 14.58156500218159
0 COSMOS 2251 DEB
1 37329U 93036BKV 13281.71684606  .00006753  00000-0  14425-2 0  1876
2 37329 074.0243 061.7372 0051648 218.1939 141.6072 14.58182038218393
0 COSMOS 2251 DEB
1 37329U 93036BKV 13283.02035982  .00007346  00000-0  15680-2 0  1883
2 37329 074.0232 059.2468 0051128 218.2999 141.5496 14.58209786218589
0 COSMOS 2251 DEB
1 37329U 93036BKV 13283.70637527  .00018144  00000-0  38530-2 0  1901
2 37329 074.0287 057.9392 0051540 214.8857 144.9417 14.58245628218689
0 COSMOS 2251 DEB
1 37329U 93036BKV 13283.70639509  .00007701  00000-0  16429-2 0  1891
2 37329 074.0282 057.9415 0051011 218.5526 141.2895 14.58227169218687
0 COSMOS 2251 DEB
1 37329U 93036BKV 13285.35286914  .00008210  00000-0  17430-2 0  1914
2 37329 074.0320 054.7993 0056004 214.3097 145.6319 14.58264079218927
0 COSMOS 2251 DEB
1 37329U 93036BKV 13286.99928914  .00008872  00000-0  18896-2 0  1920
2 37329 074.0309 051.6743 0049981 207.8985 152.0226 14.58304380219168
0 COSMOS 2251 DEB
1 37329U 93036BKV 13290.01767238  .00012921  00000-0  27376-2 0  1932
2 37329 074.0267 045.9231 0051524 202.3848 158.1378 14.58413413219605
